NORAD_CAT_ID,OBJECT_NAME,OBJECT_TYPE,EPOCH,MEAN_MOTION,ECCENTRICITY,INCLINATION,RA_OF_ASC_NODE,ARG_OF_PERICENTER,MEAN_ANOMALY,BSTAR,MEAN_MOTION_DOT,MEAN_MOTION_DDOT,TLE_LINE0,TLE_LINE1,TLE_LINE2,SEMIMAJOR_AXIS,PERIOD,APOGEE,PERIGEE,DECAYED
50849.0,STARLINK-3311,PAYLOAD,2022-02-04 18:07:04,15.73008328,0.0007382,53.2142,56.1952,10.7455,349.3721,0.001119,0.00158314,0.0,0 STARLINK-3311,1 50849U 22001AY  22035.75491702  .00158314  00000-0  11190-2 0  9994,2 50849  53.2142  56.1952 0007382  10.7455 349.3721 15.73008328  5770,6728.441999999999,91.544,355.274,345.34,0.0
50849.0,STARLINK-3311,PAYLOAD,2022-02-05 06:00:00,15.71113718,0.00015,53.2173,53.7617,42.9281,237.6073,-0.0055486,-0.00659707,0.0,0 STARLINK-3311,1 50849U 22001AY  22036.25001157 -.00659707  00000-0 -55486-2 0  9991,2 50849  53.2173  53.7617 0001500  42.9281 237.6073 15.71113718  5851,6733.85,91.655,356.725,354.705,0.0
50849.0,STARLINK-3311,PAYLOAD,2022-02-05 13:58:16,15.70513668,0.0005467,53.2147,52.1168,21.0413,339.083,-8.0949e-05,-0.00010738,0.0,0 STARLINK-3311,1 50849U 22001AY  22036.58213386 -.00010738  00000-0 -80949-4 0  9995,2 50849  53.2147  52.1168 0005467  21.0413 339.0830 15.70513668  4716,6735.565,91.69,361.112,353.74800000000016,0.0
50849.0,STARLINK-3311,PAYLOAD,2022-02-06 06:00:00,15.6971267,0.0001866,53.2175,48.8339,32.5052,144.7603,-0.0058631,-0.00657482,0.0,0 STARLINK-3311,1 50849U 22001AY  22037.25001157 -.00657482  00000-0 -58631-2 0  9995,2 50849  53.2175  48.8339 0001866  32.5052 144.7603 15.69712670  6010,6737.856,91.737,360.978,358.464,0.0
50849.0,STARLINK-3311,PAYLOAD,2022-02-06 14:00:01,15.69249517,0.0001353,53.2171,47.1936,51.7397,210.0449,-0.0060302,-0.00662757,0.0,0 STARLINK-3311,1 50849U 22001AY  22037.58335648 -.00662757  00000-0 -60302-2 0  9995,2 50849  53.2171  47.1936 0001353  51.7397 210.0449 15.69249517  3698,6739.182,91.764,361.959,360.135,0.0
50849.0,STARLINK-3311,PAYLOAD,2022-02-06 22:00:00,15.68779886,0.0001517,53.2173,45.5528,35.7911,309.8251,-0.0061053,-0.00658432,0.0,0 STARLINK-3311,1 50849U 22001AY  22037.91667824 -.00658432  00000-0 -61053-2 0  9995,2 50849  53.2173  45.5528 0001517  35.7911 309.8251 15.68779886  3699,6740.526999999999,91.791,363.414,361.369,0.0
50849.0,STARLINK-3311,PAYLOAD,2022-02-07 05:42:27,15.68675956,0.0002243,53.216,43.969,19.1202,340.99,-0.001603,-0.00182637,0.0,0 STARLINK-3311,1 50849U 22001AY  22038.23782348 -.00182637  00000-0 -16030-2 0  9994,2 50849  53.2160  43.9690 0002243  19.1202 340.9900 15.68675956  6179,6740.824000000001,91.797,364.201,361.177,0.0
50849.0,STARLINK-3311,PAYLOAD,2022-02-07 14:00:01,15.67849211,0.0001517,53.2171,42.2797,43.5809,108.1403,-0.0063794,-0.00661802,0.0,0 STARLINK-3311,1 50849U 22001AY  22038.58334491 -.00661802  00000-0 -63794-2 0  9999,2 50849  53.2171  42.2797 0001517  43.5809 108.1403 15.67849211  3690,6743.194,91.846,366.082,364.036,0.0
50849.0,STARLINK-3311,PAYLOAD,2022-02-07 16:00:00,15.67733472,0.0001396999999999,53.2173,41.87,49.7823,212.5446,-0.0064268,-0.00663403,0.0,0 STARLINK-3311,1 50849U 22001AY  22038.66667824 -.00663403  00000-0 -64268-2 0  9993,2 50849  53.2173  41.8700 0001397  49.7823 212.5446 15.67733472  6232,6743.526,91.852,366.333,364.449,0.0
50849.0,STARLINK-3311,PAYLOAD,2022-02-07 22:00:00,15.6738161,0.000162,53.2173,40.642,39.5364,194.3989,-0.0064833,-0.00659973,0.0,0 STARLINK-3311,1 50849U 22001AY  22038.91667824 -.00659973  00000-0 -64833-2 0  9996,2 50849  53.2173  40.6420 0001620  39.5364 194.3989 15.67381610  3705,6744.535,91.873,367.49300000000005,365.307,0.0
50849.0,STARLINK-3311,PAYLOAD,2022-02-08 14:00:01,15.66448986,0.0001399,53.2172,37.3756,39.867,356.8103,-0.0067341,-0.00659895,0.0,0 STARLINK-3311,1 50849U 22001AY  22039.58334491 -.00659895  00000-0 -67341-2 0  9991,2 50849  53.2172  37.3756 0001399  39.8670 356.8103 15.66448986  3707,6747.212,91.928,370.021,368.133,0.0
50849.0,STARLINK-3311,PAYLOAD,2022-02-08 20:00:01,15.660968300000002,0.0001485,53.2174,36.1497,35.035,332.1601,-0.0067982,-0.00656985,0.0,0 STARLINK-3311,1 50849U 22001AY  22039.83335648 -.00656985  00000-0 -67982-2 0  9992,2 50849  53.2174  36.1497 0001485  35.0350 332.1601 15.66096830  6426,6748.223000000001,91.948,371.09,369.086,0.0
50849.0,STARLINK-3311,PAYLOAD,2022-02-08 22:00:01,15.6598223,0.0001647,53.2174,35.7415,36.2615,81.0131,-0.0068707,-0.00660655,0.0,0 STARLINK-3311,1 50849U 22001AY  22039.91668981 -.00660655  00000-0 -68707-2 0  9995,2 50849  53.2174  35.7415 0001647  36.2615  81.0131 15.65982230  3699,6748.552,91.955,371.529,369.306,0.0
50849.0,STARLINK-3311,PAYLOAD,2022-02-09 14:00:01,15.65050336,0.0001458,53.2172,32.4818,44.9182,231.6693,-0.007153,-0.00662292,0.0,0 STARLINK-3311,1 50849U 22001AY  22040.58334491 -.00662292  00000-0 -71530-2 0  9993,2 50849  53.2172  32.4818 0001458  44.9182 231.6693 15.65050336  3715,6751.231,92.01,374.08,372.112,0.0
50849.0,STARLINK-3311,PAYLOAD,2022-02-09 20:00:01,15.6469765,0.0001575999999999,53.2173,31.2586,40.3505,205.4279,-0.0071907,-0.00656901,0.0,0 STARLINK-3311,1 50849U 22001AY  22040.83334491 -.00656901  00000-0 -71907-2 0  9999,2 50849  53.2173  31.2586 0001576  40.3505 205.4279 15.64697650  6576,6752.245,92.031,375.175,373.046,0.0
50849.0,STARLINK-3311,PAYLOAD,2022-02-10 14:00:01,15.63649659,0.0001524,53.2173,27.5982,43.5104,108.0072,-0.0075381,-0.00660212,0.0,0 STARLINK-3311,1 50849U 22001AY  22041.58335648 -.00660212  00000-0 -75381-2 0  9997,2 50849  53.2173  27.5982 0001524  43.5104 108.0072 15.63649659  3691,6755.262,92.092,378.157,376.098,0.0
50849.0,STARLINK-3311,PAYLOAD,2022-02-10 16:25:22,15.64092585,0.0001035,53.2178,27.0972,73.8778,286.2352,-0.0032128,-0.00299448,0.0,0 STARLINK-3311,1 50849U 22001AY  22041.68428286 -.00299448  00000-0 -32128-2 0  9990,2 50849  53.2178  27.0972 0001035  73.8778 286.2352 15.64092585  6717,6753.986999999999,92.066,376.551,375.153,0.0
50849.0,STARLINK-3311,PAYLOAD,2022-02-10 22:00:00,15.631827800000002,0.0001768,53.2175,25.9712,37.0825,191.5375,-0.0076627,-0.00658988,0.0,0 STARLINK-3311,1 50849U 22001AY  22041.91667824 -.00658988  00000-0 -76627-2 0  9999,2 50849  53.2175  25.9712 0001768  37.0825 191.5375 15.63182780  3683,6756.607,92.12,379.667,377.278,0.0
50849.0,STARLINK-3311,PAYLOAD,2022-02-11 06:14:02,15.63202875,0.0002217,53.2167,24.2917,39.7781,320.3397,-0.0037969,-0.00339991,0.0,0 STARLINK-3311,1 50849U 22001AY  22042.25975205 -.00339991  00000-0 -37969-2 0  9998,2 50849  53.2167  24.2917 0002217  39.7781 320.3397 15.63202875  6804,6756.549,92.119,379.912,376.916,0.0
50849.0,STARLINK-3311,PAYLOAD,2022-02-11 12:22:28,15.62856251,0.0001887,53.2154,23.0465,36.6927,323.4218,-0.0037714,-0.00333389,0.0,0 STARLINK-3311,1 50849U 22001AY  22042.51560258 -.00333389  00000-0 -37714-2 0  9998,2 50849  53.2154  23.0465 0001887  36.6927 323.4218 15.62856251  5644,6757.5480000000025,92.139,380.68800000000016,378.138,0.0
50849.0,STARLINK-3311,PAYLOAD,2022-02-11 13:54:35,15.6277702,0.000264,53.2154,22.7348,33.4345,326.6836,-0.0037087,-0.00327141,0.0,0 STARLINK-3311,1 50849U 22001AY  22042.57957447 -.00327141  00000-0 -37087-2 0  9996,2 50849  53.2154  22.7348 0002640  33.4345 326.6836 15.62777020  6858,6757.776999999999,92.144,381.426,377.858,0.0
50849.0,STARLINK-3311,PAYLOAD,2022-02-11 22:00:01,15.61782082,0.0001636999999999,53.2174,21.1015,36.3642,60.4581,-0.0080708,-0.00657075,0.0,0 STARLINK-3311,1 50849U 22001AY  22042.91668981 -.00657075  00000-0 -80708-2 0  9996,2 50849  53.2174  21.1015 0001637  36.3642  60.4581 15.61782082  6900,6760.646,92.202,383.61800000000005,381.405,0.0
50849.0,STARLINK-3311,PAYLOAD,2022-02-12 05:16:03,15.61903825,0.0001558,53.2155,19.622,34.0105,326.101,-0.0037889,-0.00323088,0.0,0 STARLINK-3311,1 50849U 22001AY  22043.21948286 -.00323088  00000-0 -37889-2 0  9995,2 50849  53.2155  19.6220 0001558  34.0105 326.1010 15.61903825  6954,6760.295,92.195,383.213,381.107,0.0
50849.0,STARLINK-3311,PAYLOAD,2022-02-12 12:57:00,15.61436882,0.0002529,53.2155,18.066,21.8503,338.26199999999994,-0.003928,-0.00328753,0.0,0 STARLINK-3311,1 50849U 22001AY  22043.53958875 -.00328753  00000-0 -39280-2 0  9996,2 50849  53.2155  18.0660 0002529  21.8503 338.2620 15.61436882  5808,6761.643,92.223,385.218,381.798,0.0
50849.0,STARLINK-3311,PAYLOAD,2022-02-12 22:00:00,15.60382197,0.0001672,53.2176,16.2418,34.8356,285.0128,-0.0085093999999999,-0.00656222,0.0,0 STARLINK-3311,1 50849U 22001AY  22043.91667824 -.00656222  00000-0 -85094-2 0  9998,2 50849  53.2176  16.2418 0001672  34.8356 285.0128 15.60382197  7059,6764.689,92.285,387.685,385.423,0.0
50849.0,STARLINK-3311,PAYLOAD,2022-02-13 14:00:01,15.59450093,0.0001583,53.2174,13.0087,38.0141,67.7579,-0.0088535,-0.00658519,0.0,0 STARLINK-3311,1 50849U 22001AY  22044.58334491 -.00658519  00000-0 -88535-2 0  9997,2 50849  53.2174  13.0087 0001583  38.0141  67.7579 15.59450093  3705,6767.385,92.34,390.321,388.17800000000005,0.0
50849.0,STARLINK-3311,PAYLOAD,2022-02-13 22:00:00,15.58881796,0.0001641,53.2169,11.390999999999998,36.3905,141.5613,-0.0071213,-0.00526903,0.0,0 STARLINK-3311,1 50849U 22001AY  22044.91667824 -.00526903  00000-0 -71213-2 0  9999,2 50849  53.2169  11.3910 0001641  36.3905 141.5613 15.58881796  7216,6769.029,92.374,392.005,389.783,0.0
50849.0,STARLINK-3311,PAYLOAD,2022-02-14 06:00:00,15.58516846,0.0001905,53.2175,9.7802,34.6273,214.8256,-0.0091692,-0.00658224,0.0,0 STARLINK-3311,1 50849U 22001AY  22045.25001157 -.00658224  00000-0 -91692-2 0  9993,2 50849  53.2175   9.7802 0001905  34.6273 214.8256 15.58516846  7269,6770.0859999999975,92.396,393.241,390.661,0.0
50849.0,STARLINK-3311,PAYLOAD,2022-02-14 14:00:01,15.58051592,0.0001375999999999,53.2174,8.1658,47.0343,273.41900000000004,-0.009371,-0.0066063999999999,0.0,0 STARLINK-3311,1 50849U 22001AY  22045.58334491 -.00660640  00000-0 -93710-2 0  9997,2 50849  53.2174   8.1658 0001376  47.0343 273.4190 15.58051592  3703,6771.434,92.423,394.23,392.367,0.0
